[{"OBJECT_NAME":"STARLINK-3934","OBJECT_ID":"2022-053V","EPOCH":"2026-01-17T23:01:50.748096","MEAN_MOTION":15.08836892,"ECCENTRICITY":0.00014123,"INCLINATION":53.2195,"RA_OF_ASC_NODE":11.8565,"ARG_OF_PERICENTER":88.7632,"MEAN_ANOMALY":271.3522,"EPHEMERIS_TYPE":0,"CLASSIFICATION_TYPE":"U","NORAD_CAT_ID":52675,"ELEMENT_SET_NO":999,"REV_AT_EPOCH":20351,"BSTAR":2.8244743e-5,"MEAN_MOTION_DOT":1.62e-6,"MEAN_MOTION_DDOT":0},{"OBJECT_NAME":"STARLINK-4006","OBJECT_ID":"2022-053W","EPOCH":"2026-01-17T16:49:34.185504","MEAN_MOTION":15.08837009,"ECCENTRICITY":0.00013014,"INCLINATION":53.2171,"RA_OF_ASC_NODE":23.0153,"ARG_OF_PERICENTER":82.8387,"MEAN_ANOMALY":277.2753,"EPHEMERIS_TYPE":0,"CLASSIFICATION_TYPE":"U","NORAD_CAT_ID":52676,"ELEMENT_SET_NO":999,"REV_AT_EPOCH":20334,"BSTAR":1.592756e-6,"MEAN_MOTION_DOT":-2.63e-6,"MEAN_MOTION_DDOT":0},{"OBJECT_NAME":"STARLINK-4074","OBJECT_ID":"2022-053Y","EPOCH":"2026-01-17T16:56:12.866208","MEAN_MOTION":15.08839841,"ECCENTRICITY":0.00014359,"INCLINATION":53.2194,"RA_OF_ASC_NODE":13.1032,"ARG_OF_PERICENTER":86.6865,"MEAN_ANOMALY":273.4291,"EPHEMERIS_TYPE":0,"CLASSIFICATION_TYPE":"U","NORAD_CAT_ID":52678,"ELEMENT_SET_NO":999,"REV_AT_EPOCH":20347,"BSTAR":4.5163162e-5,"MEAN_MOTION_DOT":4.31e-6,"MEAN_MOTION_DDOT":0},{"OBJECT_NAME":"STARLINK-4031","OBJECT_ID":"2022-053Z","EPOCH":"2026-01-17T16:13:47.949888","MEAN_MOTION":15.08835333,"ECCENTRICITY":0.00012485,"INCLINATION":53.2178,"RA_OF_ASC_NODE":13.1283,"ARG_OF_PERICENTER":85.9107,"MEAN_ANOMALY":274.2028,"EPHEMERIS_TYPE":0,"CLASSIFICATION_TYPE":"U","NORAD_CAT_ID":52679,"ELEMENT_SET_NO":999,"REV_AT_EPOCH":20343,"BSTAR":1.2887668e-5,"MEAN_MOTION_DOT":-8.3e-7,"MEAN_MOTION_DDOT":0},{"OBJECT_NAME":"STARLINK-3774","OBJECT_ID":"2022-053AA","EPOCH":"2026-01-17T06:30:50.974848","MEAN_MOTION":15.08836425,"ECCENTRICITY":0.0001391,"INCLINATION":53.2181,"RA_OF_ASC_NODE":14.7148,"ARG_OF_PERICENTER":86.737,"MEAN_ANOMALY":273.3781,"EPHEMERIS_TYPE":0,"CLASSIFICATION_TYPE":"U","NORAD_CAT_ID":52680,"ELEMENT_SET_NO":999,"REV_AT_EPOCH":20339,"BSTAR":-7.971427e-6,"MEAN_MOTION_DOT":-4.15e-6,"MEAN_MOTION_DDOT":0},{"OBJECT_NAME":"STARLINK-4068","OBJECT_ID":"2022-053AB","EPOCH":"2026-01-18T00:05:26.281824","MEAN_MOTION":15.08833233,"ECCENTRICITY":0.00016943,"INCLINATION":53.2198,"RA_OF_ASC_NODE":11.6603,"ARG_OF_PERICENTER":99.1244,"MEAN_ANOMALY":260.994,"EPHEMERIS_TYPE":0,"CLASSIFICATION_TYPE":"U","NORAD_CAT_ID":52681,"ELEMENT_SET_NO":999,"REV_AT_EPOCH":20348,"BSTAR":-5.5760272e-5,"MEAN_MOTION_DOT":-1.175e-5,"MEAN_MOTION_DDOT":0},{"OBJECT_NAME":"STARLINK-4017","OBJECT_ID":"2022-053AC","EPOCH":"2026-01-17T16:24:24.020640","MEAN_MOTION":15.08835527,"ECCENTRICITY":0.00013555,"INCLINATION":53.2178,"RA_OF_ASC_NODE":13.0948,"ARG_OF_PERICENTER":87.8442,"MEAN_ANOMALY":272.2705,"EPHEMERIS_TYPE":0,"CLASSIFICATION_TYPE":"U","NORAD_CAT_ID":52682,"ELEMENT_SET_NO":999,"REV_AT_EPOCH":20345,"BSTAR":6.640762e-6,"MEAN_MOTION_DOT":-1.82e-6,"MEAN_MOTION_DDOT":0},{"OBJECT_NAME":"STARLINK-4014","OBJECT_ID":"2022-053AE","EPOCH":"2026-01-17T22:40:38.880480","MEAN_MOTION":15.08838535,"ECCENTRICITY":0.00016968,"INCLINATION":53.2194,"RA_OF_ASC_NODE":11.923,"ARG_OF_PERICENTER":87.7969,"MEAN_ANOMALY":272.3217,"EPHEMERIS_TYPE":0,"CLASSIFICATION_TYPE":"U","NORAD_CAT_ID":52684,"ELEMENT_SET_NO":999,"REV_AT_EPOCH":20347,"BSTAR":2.5598099e-5,"MEAN_MOTION_DOT":1.19e-6,"MEAN_MOTION_DDOT":0},{"OBJECT_NAME":"STARLINK-4029","OBJECT_ID":"2022-053AF","EPOCH":"2026-01-17T09:25:45.275232","MEAN_MOTION":15.08847043,"ECCENTRICITY":0.00013927,"INCLINATION":53.2184,"RA_OF_ASC_NODE":14.4026,"ARG_OF_PERICENTER":90.2579,"MEAN_ANOMALY":269.8573,"EPHEMERIS_TYPE":0,"CLASSIFICATION_TYPE":"U","NORAD_CAT_ID":52685,"ELEMENT_SET_NO":999,"REV_AT_EPOCH":20337,"BSTAR":5.6726068e-5,"MEAN_MOTION_DOT":6.15e-6,"MEAN_MOTION_DDOT":0},{"OBJECT_NAME":"STARLINK-4005","OBJECT_ID":"2022-053AG","EPOCH":"2026-01-17T16:41:43.133568","MEAN_MOTION":15.0884619,"ECCENTRICITY":0.00013111,"INCLINATION":53.2202,"RA_OF_ASC_NODE":13.3218,"ARG_OF_PERICENTER":95.1829,"MEAN_ANOMALY":264.9313,"EPHEMERIS_TYPE":0,"CLASSIFICATION_TYPE":"U","NORAD_CAT_ID":52686,"ELEMENT_SET_NO":999,"REV_AT_EPOCH":20342,"BSTAR":-0.00010258123,"MEAN_MOTION_DOT":-1.92e-5,"MEAN_MOTION_DDOT":0},{"OBJECT_NAME":"STARLINK-3981","OBJECT_ID":"2022-053AH","EPOCH":"2026-01-17T09:20:27.254112","MEAN_MOTION":15.08846364,"ECCENTRICITY":0.00013979,"INCLINATION":53.2189,"RA_OF_ASC_NODE":14.4176,"ARG_OF_PERICENTER":89.277,"MEAN_ANOMALY":270.8382,"EPHEMERIS_TYPE":0,"CLASSIFICATION_TYPE":"U","NORAD_CAT_ID":52687,"ELEMENT_SET_NO":999,"REV_AT_EPOCH":20337,"BSTAR":6.0412538e-5,"MEAN_MOTION_DOT":6.74e-6,"MEAN_MOTION_DDOT":0},{"OBJECT_NAME":"STARLINK-4032","OBJECT_ID":"2022-053AJ","EPOCH":"2026-01-17T17:12:04.119840","MEAN_MOTION":15.08839816,"ECCENTRICITY":0.00014006,"INCLINATION":53.2181,"RA_OF_ASC_NODE":12.831,"ARG_OF_PERICENTER":87.3809,"MEAN_ANOMALY":272.7344,"EPHEMERIS_TYPE":0,"CLASSIFICATION_TYPE":"U","NORAD_CAT_ID":52688,"ELEMENT_SET_NO":999,"REV_AT_EPOCH":20342,"BSTAR":2.3961038e-5,"MEAN_MOTION_DOT":9.3e-7,"MEAN_MOTION_DDOT":0},{"OBJECT_NAME":"STARLINK-4078","OBJECT_ID":"2022-053AK","EPOCH":"2026-01-17T13:30:27.298944","MEAN_MOTION":15.46054739,"ECCENTRICITY":0.00038362,"INCLINATION":53.2152,"RA_OF_ASC_NODE":327.954,"ARG_OF_PERICENTER":82.9261,"MEAN_ANOMALY":277.2183,"EPHEMERIS_TYPE":0,"CLASSIFICATION_TYPE":"U","NORAD_CAT_ID":52689,"ELEMENT_SET_NO":999,"REV_AT_EPOCH":20408,"BSTAR":0.001052819,"MEAN_MOTION_DOT":0.00052214,"MEAN_MOTION_DDOT":0},{"OBJECT_NAME":"STARLINK-4035","OBJECT_ID":"2022-053AL","EPOCH":"2026-01-17T09:31:03.825120","MEAN_MOTION":15.08838904,"ECCENTRICITY":0.00015062,"INCLINATION":53.2175,"RA_OF_ASC_NODE":14.3839,"ARG_OF_PERICENTER":94.6104,"MEAN_ANOMALY":265.506,"EPHEMERIS_TYPE":0,"CLASSIFICATION_TYPE":"U","NORAD_CAT_ID":52690,"ELEMENT_SET_NO":999,"REV_AT_EPOCH":20337,"BSTAR":-4.448951e-6,"MEAN_MOTION_DOT":-3.59e-6,"MEAN_MOTION_DDOT":0},{"OBJECT_NAME":"STARLINK-3993","OBJECT_ID":"2022-053AN","EPOCH":"2026-01-17T22:56:29.931072","MEAN_MOTION":15.08839125,"ECCENTRICITY":0.00013905,"INCLINATION":53.2195,"RA_OF_ASC_NODE":11.6035,"ARG_OF_PERICENTER":89.7424,"MEAN_ANOMALY":270.3727,"EPHEMERIS_TYPE":0,"CLASSIFICATION_TYPE":"U","NORAD_CAT_ID":52692,"ELEMENT_SET_NO":999,"REV_AT_EPOCH":20349,"BSTAR":6.398903e-5,"MEAN_MOTION_DOT":7.31e-6,"MEAN_MOTION_DDOT":0},{"OBJECT_NAME":"STARLINK-3946","OBJECT_ID":"2022-053AP","EPOCH":"2026-01-17T16:45:36.021312","MEAN_MOTION":15.08840059,"ECCENTRICITY":0.00015255,"INCLINATION":53.2207,"RA_OF_ASC_NODE":13.0301,"ARG_OF_PERICENTER":81.8144,"MEAN_ANOMALY":278.3021,"EPHEMERIS_TYPE":0,"CLASSIFICATION_TYPE":"U","NORAD_CAT_ID":52693,"ELEMENT_SET_NO":999,"REV_AT_EPOCH":20345,"BSTAR":4.6129841e-5,"MEAN_MOTION_DOT":4.46e-6,"MEAN_MOTION_DDOT":0}]
