STARLINK-3934           
1 52675U 22053V   26017.95961514  .00000162  00000+0  28245-4 0  9996
2 52675  53.2195  11.8565 0001412  88.7632 271.3522 15.08836892203513
STARLINK-4006           
1 52676U 22053W   26017.70109011 -.00000263  00000+0  15928-5 0  9994
2 52676  53.2171  23.0153 0001301  82.8387 277.2753 15.08837009203348
STARLINK-4074           
1 52678U 22053Y   26017.70570447  .00000431  00000+0  45163-4 0  9990
2 52678  53.2194  13.1032 0001435  86.6865 273.4291 15.08839841203477
STARLINK-4031           
1 52679U 22053Z   26017.67624942 -.00000083  00000+0  12888-4 0  9999
2 52679  53.2178  13.1283 0001248  85.9107 274.2028 15.08835333203436
STARLINK-3774           
1 52680U 22053AA  26017.27142332 -.00000415  00000+0 -79714-5 0  9997
2 52680  53.2181  14.7148 0001391  86.7370 273.3781 15.08836425203393
STARLINK-4068           
1 52681U 22053AB  26018.00377641 -.00001175  00000+0 -55760-4 0  9991
2 52681  53.2198  11.6603 0001694  99.1244 260.9940 15.08833233203481
STARLINK-4017           
1 52682U 22053AC  26017.68361135 -.00000182  00000+0  66408-5 0  9994
2 52682  53.2178  13.0948 0001355  87.8442 272.2705 15.08835527203456
STARLINK-4014           
1 52684U 22053AE  26017.94489445  .00000119  00000+0  25598-4 0  9993
2 52684  53.2194  11.9230 0001696  87.7969 272.3217 15.08838535203471
STARLINK-4029           
1 52685U 22053AF  26017.39288513  .00000615  00000+0  56726-4 0  9994
2 52685  53.2184  14.4026 0001392  90.2579 269.8573 15.08847043203370
STARLINK-4005           
1 52686U 22053AG  26017.69563812 -.00001920  00000+0 -10258-3 0  9997
2 52686  53.2202  13.3218 0001311  95.1829 264.9313 15.08846190203422
STARLINK-3981           
1 52687U 22053AH  26017.38920433  .00000674  00000+0  60413-4 0  9992
2 52687  53.2189  14.4176 0001397  89.2770 270.8382 15.08846364203374
STARLINK-4032           
1 52688U 22053AJ  26017.71671435  .00000093  00000+0  23961-4 0  9997
2 52688  53.2181  12.8310 0001400  87.3809 272.7344 15.08839816203425
STARLINK-4078           
1 52689U 22053AK  26017.56281596  .00052214  00000+0  10528-2 0  9991
2 52689  53.2152 327.9540 0003836  82.9261 277.2183 15.46054739204086
STARLINK-4035           
1 52690U 22053AL  26017.39657205 -.00000359  00000+0 -44490-5 0  9991
2 52690  53.2175  14.3839 0001506  94.6104 265.5060 15.08838904203376
STARLINK-3993           
1 52692U 22053AN  26017.95590198  .00000731  00000+0  63989-4 0  9997
2 52692  53.2195  11.6035 0001390  89.7424 270.3727 15.08839125203492
STARLINK-3946           
1 52693U 22053AP  26017.69833358  .00000446  00000+0  46130-4 0  9999
2 52693  53.2207  13.0301 0001525  81.8144 278.3021 15.08840059203450
